CTC1_L_00573001-01
1 10000U 26806MF  26075.70038194  .00000000  00000+0  00000-0 0  9994
2 10000  87.0000   0.0000 0000000   0.0000   0.0000 13.96770464    16
CTC1_L_00573002-01
1 10001U 24976ED  26075.70038194  .00000000  00000+0  00000-0 0  9991
2 10001  87.0000   7.5000 0000000   0.0000  30.0000 13.96770464    12
CTC1_L_00573003-01
1 10002U 26427XX  26075.70038194  .00000000  00000+0  00000-0 0  9995
2 10002  87.0000  15.0000 0000000   0.0000  60.0000 13.96770464    10
CTC1_L_00573004-01
1 10003U 23072LT  26075.70038194  .00000000  00000+0  00000-0 0  9999
2 10003  87.0000  22.5000 0000000   0.0000  90.0000 13.96770464    17
CTC1_L_00573005-01
1 10004U 22464WU  26075.70038194  .00000000  00000+0  00000-0 0  9994
2 10004  87.0000  30.0000 0000000   0.0000 120.0000 13.96770464    16
CTC1_L_00573006-01
1 10005U 24116MV  26075.70038194  .00000000  00000+0  00000-0 0  9991
2 10005  87.0000  37.5000 0000000   0.0000 150.0000 13.96770464    12
CTC1_L_00573007-01
1 10006U 24774TA  26075.70038194  .00000000  00000+0  00000-0 0  9992
2 10006  87.0000  45.0000 0000000   0.0000 180.0000 13.96770464    10
CTC1_L_00573008-01
1 10007U 24269SI  26075.70038194  .00000000  00000+0  00000-0 0  9992
2 10007  87.0000  52.5000 0000000   0.0000 210.0000 13.96770464    18
CTC1_L_00573009-01
1 10008U 24259YU  26075.70038194  .00000000  00000+0  00000-0 0  9992
2 10008  87.0000  60.0000 0000000   0.0000 240.0000 13.96770464    16
CTC1_L_00573010-01
1 10009U 26362XO  26075.70038194  .00000000  00000+0  00000-0 0  9990
2 10009  87.0000  67.5000 0000000   0.0000 270.0000 13.96770464    12
CTC1_L_00573011-01
1 10010U 22832SC  26075.70038194  .00000000  00000+0  00000-0 0  9990
2 10010  87.0000  75.0000 0000000   0.0000 300.0000 13.96770464    12
CTC1_L_00573012-01
1 10011U 22712UO  26075.70038194  .00000000  00000+0  00000-0 0  9998
2 10011  87.0000  82.5000 0000000   0.0000 330.0000 13.96770464    19
CTC1_L_00573013-01
1 10012U 23937VE  26075.70038194  .00000000  00000+0  00000-0 0  9999
2 10012  87.0000  90.0000 0000000   0.0000   0.0000 13.96770464    18
CTC1_L_00573014-01
1 10013U 23638SP  26075.70038194  .00000000  00000+0  00000-0 0  9998
2 10013  87.0000  97.5000 0000000   0.0000  30.0000 13.96770464    14
CTC1_L_00573015-01
1 10014U 25221CU  26075.70038194  .00000000  00000+0  00000-0 0  9999
2 10014  87.0000 105.0000 0000000   0.0000  60.0000 13.96770464    13
CTC1_L_00573016-01
1 10015U 22503KF  26075.70038194  .00000000  00000+0  00000-0 0  9990
2 10015  87.0000 112.5000 0000000   0.0000  90.0000 13.96770464    10
CTC1_L_00573017-01
1 10016U 24315KF  26075.70038194  .00000000  00000+0  00000-0 0  9994
2 10016  87.0000 120.0000 0000000   0.0000 120.0000 13.96770464    19
CTC1_L_00573018-01
1 10017U 22782OP  26075.70038194  .00000000  00000+0  00000-0 0  9991
2 10017  87.0000 127.5000 0000000   0.0000 150.0000 13.96770464    15
CTC1_L_00573019-01
1 10018U 22457NL  26075.70038194  .00000000  00000+0  00000-0 0  9991
2 10018  87.0000 135.0000 0000000   0.0000 180.0000 13.96770464    13
CTC1_L_00573020-01
1 10019U 25518HI  26075.70038194  .00000000  00000+0  00000-0 0  9993
2 10019  87.0000 142.5000 0000000   0.0000 210.0000 13.96770464    11
CTC1_L_00573021-01
1 10020U 23528GW  26075.70038194  .00000000  00000+0  00000-0 0  9994
2 10020  87.0000 150.0000 0000000   0.0000 240.0000 13.96770464    10
CTC1_L_00573022-01
1 10021U 26398RA  26075.70038194  .00000000  00000+0  00000-0 0  9993
2 10021  87.0000 157.5000 0000000   0.0000 270.0000 13.96770464    16
CTC1_L_00573023-01
1 10022U 22281UD  26075.70038194  .00000000  00000+0  00000-0 0  9991
2 10022  87.0000 165.0000 0000000   0.0000 300.0000 13.96770464    15
CTC1_L_00573024-01
1 10023U 23911PA  26075.70038194  .00000000  00000+0  00000-0 0  9993
2 10023  87.0000 172.5000 0000000   0.0000 330.0000 13.96770464    12
CTC1_L_00573025-01
1 10024U 25150DD  26075.70038194  .00000000  00000+0  00000-0 0  9991
2 10024  87.0000 180.0000 0000000   0.0000   0.0000 13.96770464    11
CTC1_L_00573026-01
1 10025U 24937MC  26075.70038194  .00000000  00000+0  00000-0 0  9994
2 10025  87.0000 187.5000 0000000   0.0000  30.0000 13.96770464    17
CTC1_L_00573027-01
1 10026U 24736AT  26075.70038194  .00000000  00000+0  00000-0 0  9992
2 10026  87.0000 195.0000 0000000   0.0000  60.0000 13.96770464    15
CTC1_L_00573028-01
1 10027U 26660PO  26075.70038194  .00000000  00000+0  00000-0 0  9991
2 10027  87.0000 202.5000 0000000   0.0000  90.0000 13.96770464    13
CTC1_L_00573029-01
1 10028U 23598QF  26075.70038194  .00000000  00000+0  00000-0 0  9999
2 10028  87.0000 210.0000 0000000   0.0000 120.0000 13.96770464    12
CTC1_L_00573030-01
1 10029U 26426VU  26075.70038194  .00000000  00000+0  00000-0 0  9993
2 10029  87.0000 217.5000 0000000   0.0000 150.0000 13.96770464    18
CTC1_L_00573031-01
1 10030U 26510BO  26075.70038194  .00000000  00000+0  00000-0 0  9999
2 10030  87.0000 225.0000 0000000   0.0000 180.0000 13.96770464    17
CTC1_L_00573032-01
1 10031U 24239QI  26075.70038194  .00000000  00000+0  00000-0 0  9996
2 10031  87.0000 232.5000 0000000   0.0000 210.0000 13.96770464    15
CTC1_L_00573033-01
1 10032U 25808KF  26075.70038194  .00000000  00000+0  00000-0 0  9990
2 10032  87.0000 240.0000 0000000   0.0000 240.0000 13.96770464    13
CTC1_L_00573034-01
1 10033U 22637TY  26075.70038194  .00000000  00000+0  00000-0 0  9998
2 10033  87.0000 247.5000 0000000   0.0000 270.0000 13.96770464    19
CTC1_L_00573035-01
1 10034U 25976XQ  26075.70038194  .00000000  00000+0  00000-0 0  9998
2 10034  87.0000 255.0000 0000000   0.0000 300.0000 13.96770464    18
CTC1_L_00573036-01
1 10035U 25695ZI  26075.70038194  .00000000  00000+0  00000-0 0  9997
2 10035  87.0000 262.5000 0000000   0.0000 330.0000 13.96770464    15
CTC1_L_00573037-01
1 10036U 25352KY  26075.70038194  .00000000  00000+0  00000-0 0  9998
2 10036  87.0000 270.0000 0000000   0.0000   0.0000 13.96770464    14
CTC1_L_00573038-01
1 10037U 22772BV  26075.70038194  .00000000  00000+0  00000-0 0  9992
2 10037  87.0000 277.5000 0000000   0.0000  30.0000 13.96770464    10
CTC1_L_00573039-01
1 10038U 24044KP  26075.70038194  .00000000  00000+0  00000-0 0  9997
2 10038  87.0000 285.0000 0000000   0.0000  60.0000 13.96770464    18
CTC1_L_00573040-01
1 10039U 26491QP  26075.70038194  .00000000  00000+0  00000-0 0  9996
2 10039  87.0000 292.5000 0000000   0.0000  90.0000 13.96770464    15
CTC1_L_00573041-01
1 10040U 22179QJ  26075.70038194  .00000000  00000+0  00000-0 0  9997
2 10040  87.0000 300.0000 0000000   0.0000 120.0000 13.96770464    16
CTC1_L_00573042-01
1 10041U 23193ZW  26075.70038194  .00000000  00000+0  00000-0 0  9995
2 10041  87.0000 307.5000 0000000   0.0000 150.0000 13.96770464    12
CTC1_L_00573043-01
1 10042U 25531OG  26075.70038194  .00000000  00000+0  00000-0 0  9994
2 10042  87.0000 315.0000 0000000   0.0000 180.0000 13.96770464    10
CTC1_L_00573044-01
1 10043U 26957ZB  26075.70038194  .00000000  00000+0  00000-0 0  9998
2 10043  87.0000 322.5000 0000000   0.0000 210.0000 13.96770464    18
CTC1_L_00573045-01
1 10044U 24474VD  26075.70038194  .00000000  00000+0  00000-0 0  9991
2 10044  87.0000 330.0000 0000000   0.0000 240.0000 13.96770464    16
CTC1_L_00573046-01
1 10045U 22064WQ  26075.70038194  .00000000  00000+0  00000-0 0  9995
2 10045  87.0000 337.5000 0000000   0.0000 270.0000 13.96770464    12
CTC1_L_00573047-01
1 10046U 23420NR  26075.70038194  .00000000  00000+0  00000-0 0  9993
2 10046  87.0000 345.0000 0000000   0.0000 300.0000 13.96770464    11
CTC1_L_00573048-01
1 10047U 22895OP  26075.70038194  .00000000  00000+0  00000-0 0  9999
2 10047  87.0000 352.5000 0000000   0.0000 330.0000 13.96770464    18
